[{"OBJECT_NAME":"STARLINK-3446","OBJECT_ID":"2022-016AK","EPOCH":"2026-03-09T21:24:54.288000","MEAN_MOTION":15.08836611,"ECCENTRICITY":0.00013552,"INCLINATION":53.2176,"RA_OF_ASC_NODE":318.2616,"ARG_OF_PERICENTER":87.5489,"MEAN_ANOMALY":272.5659,"EPHEMERIS_TYPE":0,"CLASSIFICATION_TYPE":"U","NORAD_CAT_ID":51747,"ELEMENT_SET_NO":999,"REV_AT_EPOCH":22359,"BSTAR":-6.751311e-5,"MEAN_MOTION_DOT":-1.362e-5,"MEAN_MOTION_DDOT":0},{"OBJECT_NAME":"CSC-1","OBJECT_ID":"2023-155G","EPOCH":"2026-03-09T17:46:02.342496","MEAN_MOTION":15.1003596,"ECCENTRICITY":0.00075041,"INCLINATION":97.5446,"RA_OF_ASC_NODE":139.7305,"ARG_OF_PERICENTER":212.9992,"MEAN_ANOMALY":147.077,"EPHEMERIS_TYPE":0,"CLASSIFICATION_TYPE":"U","NORAD_CAT_ID":58022,"ELEMENT_SET_NO":999,"REV_AT_EPOCH":13272,"BSTAR":0.00054556609,"MEAN_MOTION_DOT":8.819e-5,"MEAN_MOTION_DDOT":0}]
